UNKNOWN                 
1 89261U          25349.25057911  .00000974  00000+0  30208-3 0  9994
2 89261  98.1538 343.5564 0013456 146.8272 213.3765 14.43119586534170
UNKNOWN                 
1 89304U          25353.38003962  .00016816  00000+0  20297-1 0  9995
2 89304  84.3069 102.2388 2850417 337.0493  32.7880  9.03674680439003
UNKNOWN                 
1 89349U          25354.32647929  .00000315  00000+0  10783-2 0  9993
2 89349  90.2439   7.5204 0028733 245.0208 114.7927 12.96246950479739
UNKNOWN                 
1 89379U          25353.02647130  .00003661  00000+0  47263-2 0  9996
2 89379 100.4815   8.7622 0042046 115.1085 245.4426 13.62760386581631
UNKNOWN                 
1 89395U          25349.89258409 -.00000220  00000+0 -20254-2 0  9992
2 89395 102.3666 317.9549 0222398 119.5893 304.5400 12.01514395525122
UNKNOWN                 
1 89403U          25354.51946909  .00000997  00000+0  33430-2 0  9995
2 89403  90.2448   5.9797 0028769 195.9150 317.4209 12.98758070478835
UNKNOWN                 
1 89484U          25353.78000933  .00020190  00000+0  14854-1 0  9995
2 89484  84.0421 152.7022 2857331  17.4824 350.6866  9.14944919356084
UNKNOWN                 
1 89493U          25353.93005884  .00001873  00000+0  93777-3 0  9992
2 89493  99.0264  62.8959 0080283  20.0408 340.3887 14.16294836464965
UNKNOWN                 
1 89494U          25345.01222831  .00003657  00000+0  18107-2 0  9991
2 89494  99.0254  53.7408 0081631  45.8918 314.8934 14.16177706463551
