CCSDS_OMM_VERS = 2.0
CREATION_DATE  = 
ORIGINATOR     = 

OBJECT_NAME    = UNKNOWN
OBJECT_ID      = 
CENTER_NAME    = EARTH
REF_FRAME      = TEME
TIME_SYSTEM    = UTC
MEAN_ELEMENT_THEORY = SGP/SGP4

EPOCH          = 2025-12-15T06:00:50.035104
MEAN_MOTION    = 14.43119586
ECCENTRICITY   = .0013456
INCLINATION    = 98.1538
RA_OF_ASC_NODE = 343.5564
ARG_OF_PERICENTER = 146.8272
MEAN_ANOMALY   = 213.3765

EPHEMERIS_TYPE = 0
CLASSIFICATION_TYPE = U
NORAD_CAT_ID   = 89261
ELEMENT_SET_NO = 999
REV_AT_EPOCH   = 53417
BSTAR          = .30208E-3
MEAN_MOTION_DOT = .974E-5
MEAN_MOTION_DDOT = 0

CCSDS_OMM_VERS = 2.0
CREATION_DATE  = 
ORIGINATOR     = 

OBJECT_NAME    = UNKNOWN
OBJECT_ID      = 
CENTER_NAME    = EARTH
REF_FRAME      = TEME
TIME_SYSTEM    = UTC
MEAN_ELEMENT_THEORY = SGP/SGP4

EPOCH          = 2025-12-19T09:07:15.423168
MEAN_MOTION    = 9.03674680
ECCENTRICITY   = .2850417
INCLINATION    = 84.3069
RA_OF_ASC_NODE = 102.2388
ARG_OF_PERICENTER = 337.0493
MEAN_ANOMALY   = 32.7880

EPHEMERIS_TYPE = 0
CLASSIFICATION_TYPE = U
NORAD_CAT_ID   = 89304
ELEMENT_SET_NO = 999
REV_AT_EPOCH   = 43900
BSTAR          = .20297E-1
MEAN_MOTION_DOT = .16816E-3
MEAN_MOTION_DDOT = 0

CCSDS_OMM_VERS = 2.0
CREATION_DATE  = 
ORIGINATOR     = 

OBJECT_NAME    = UNKNOWN
OBJECT_ID      = 
CENTER_NAME    = EARTH
REF_FRAME      = TEME
TIME_SYSTEM    = UTC
MEAN_ELEMENT_THEORY = SGP/SGP4

EPOCH          = 2025-12-20T07:50:07.810656
MEAN_MOTION    = 12.96246950
ECCENTRICITY   = .0028733
INCLINATION    = 90.2439
RA_OF_ASC_NODE = 7.5204
ARG_OF_PERICENTER = 245.0208
MEAN_ANOMALY   = 114.7927

EPHEMERIS_TYPE = 0
CLASSIFICATION_TYPE = U
NORAD_CAT_ID   = 89349
ELEMENT_SET_NO = 999
REV_AT_EPOCH   = 47973
BSTAR          = .10783E-2
MEAN_MOTION_DOT = .315E-5
MEAN_MOTION_DDOT = 0

CCSDS_OMM_VERS = 2.0
CREATION_DATE  = 
ORIGINATOR     = 

OBJECT_NAME    = UNKNOWN
OBJECT_ID      = 
CENTER_NAME    = EARTH
REF_FRAME      = TEME
TIME_SYSTEM    = UTC
MEAN_ELEMENT_THEORY = SGP/SGP4

EPOCH          = 2025-12-19T00:38:07.120320
MEAN_MOTION    = 13.62760386
ECCENTRICITY   = .0042046
INCLINATION    = 100.4815
RA_OF_ASC_NODE = 8.7622
ARG_OF_PERICENTER = 115.1085
MEAN_ANOMALY   = 245.4426

EPHEMERIS_TYPE = 0
CLASSIFICATION_TYPE = U
NORAD_CAT_ID   = 89379
ELEMENT_SET_NO = 999
REV_AT_EPOCH   = 58163
BSTAR          = .47263E-2
MEAN_MOTION_DOT = .3661E-4
MEAN_MOTION_DDOT = 0

CCSDS_OMM_VERS = 2.0
CREATION_DATE  = 
ORIGINATOR     = 

OBJECT_NAME    = UNKNOWN
OBJECT_ID      = 
CENTER_NAME    = EARTH
REF_FRAME      = TEME
TIME_SYSTEM    = UTC
MEAN_ELEMENT_THEORY = SGP/SGP4

EPOCH          = 2025-12-15T21:25:19.265376
MEAN_MOTION    = 12.01514395
ECCENTRICITY   = .0222398
INCLINATION    = 102.3666
RA_OF_ASC_NODE = 317.9549
ARG_OF_PERICENTER = 119.5893
MEAN_ANOMALY   = 304.5400

EPHEMERIS_TYPE = 0
CLASSIFICATION_TYPE = U
NORAD_CAT_ID   = 89395
ELEMENT_SET_NO = 999
REV_AT_EPOCH   = 52512
BSTAR          = -.20254E-2
MEAN_MOTION_DOT = -.22E-5
MEAN_MOTION_DDOT = 0

CCSDS_OMM_VERS = 2.0
CREATION_DATE  = 
ORIGINATOR     = 

OBJECT_NAME    = UNKNOWN
OBJECT_ID      = 
CENTER_NAME    = EARTH
REF_FRAME      = TEME
TIME_SYSTEM    = UTC
MEAN_ELEMENT_THEORY = SGP/SGP4

EPOCH          = 2025-12-20T12:28:02.129376
MEAN_MOTION    = 12.98758070
ECCENTRICITY   = .0028769
INCLINATION    = 90.2448
RA_OF_ASC_NODE = 5.9797
ARG_OF_PERICENTER = 195.9150
MEAN_ANOMALY   = 317.4209

EPHEMERIS_TYPE = 0
CLASSIFICATION_TYPE = U
NORAD_CAT_ID   = 89403
ELEMENT_SET_NO = 999
REV_AT_EPOCH   = 47883
BSTAR          = .3343E-2
MEAN_MOTION_DOT = .997E-5
MEAN_MOTION_DDOT = 0

CCSDS_OMM_VERS = 2.0
CREATION_DATE  = 
ORIGINATOR     = 

OBJECT_NAME    = UNKNOWN
OBJECT_ID      = 
CENTER_NAME    = EARTH
REF_FRAME      = TEME
TIME_SYSTEM    = UTC
MEAN_ELEMENT_THEORY = SGP/SGP4

EPOCH          = 2025-12-19T18:43:12.806112
MEAN_MOTION    = 9.14944919
ECCENTRICITY   = .2857331
INCLINATION    = 84.0421
RA_OF_ASC_NODE = 152.7022
ARG_OF_PERICENTER = 17.4824
MEAN_ANOMALY   = 350.6866

EPHEMERIS_TYPE = 0
CLASSIFICATION_TYPE = U
NORAD_CAT_ID   = 89484
ELEMENT_SET_NO = 999
REV_AT_EPOCH   = 35608
BSTAR          = .14854E-1
MEAN_MOTION_DOT = .2019E-3
MEAN_MOTION_DDOT = 0

CCSDS_OMM_VERS = 2.0
CREATION_DATE  = 
ORIGINATOR     = 

OBJECT_NAME    = UNKNOWN
OBJECT_ID      = 
CENTER_NAME    = EARTH
REF_FRAME      = TEME
TIME_SYSTEM    = UTC
MEAN_ELEMENT_THEORY = SGP/SGP4

EPOCH          = 2025-12-19T22:19:17.083776
MEAN_MOTION    = 14.16294836
ECCENTRICITY   = .0080283
INCLINATION    = 99.0264
RA_OF_ASC_NODE = 62.8959
ARG_OF_PERICENTER = 20.0408
MEAN_ANOMALY   = 340.3887

EPHEMERIS_TYPE = 0
CLASSIFICATION_TYPE = U
NORAD_CAT_ID   = 89493
ELEMENT_SET_NO = 999
REV_AT_EPOCH   = 46496
BSTAR          = .93777E-3
MEAN_MOTION_DOT = .1873E-4
MEAN_MOTION_DDOT = 0

CCSDS_OMM_VERS = 2.0
CREATION_DATE  = 
ORIGINATOR     = 

OBJECT_NAME    = UNKNOWN
OBJECT_ID      = 
CENTER_NAME    = EARTH
REF_FRAME      = TEME
TIME_SYSTEM    = UTC
MEAN_ELEMENT_THEORY = SGP/SGP4

EPOCH          = 2025-12-11T00:17:36.525984
MEAN_MOTION    = 14.16177706
ECCENTRICITY   = .0081631
INCLINATION    = 99.0254
RA_OF_ASC_NODE = 53.7408
ARG_OF_PERICENTER = 45.8918
MEAN_ANOMALY   = 314.8934

EPHEMERIS_TYPE = 0
CLASSIFICATION_TYPE = U
NORAD_CAT_ID   = 89494
ELEMENT_SET_NO = 999
REV_AT_EPOCH   = 46355
BSTAR          = .18107E-2
MEAN_MOTION_DOT = .3657E-4
MEAN_MOTION_DDOT = 0

